{"type":"FeatureCollection","source":"Karte vom Königlich Preussischen Regierungs-Bezirk Minden, [Blatt 1]: Karte vom Kreise Lübbecke im Regierungs-Bezirk Minden","accuracy":"38 Ortsmitten (Kirchdörfer und Bauerschaften), Median-LOO etwa 210 m","archive":"Landesarchiv NRW Abt. Westfalen, W 051 Nr. 11781","license":"CC BY-SA 4.0","note":"Moor- und Bruchflächen aus der Kreiskarte Lübbecke 1844, von Hand in Bildpixeln umrissen. Die Karte zeichnet Heide und Torfmoor mit derselben Signatur. Aufgenommen sind nur Flächen mit Torfstich-Zeichen oder mit Moor-, Torf- oder Bruchnamen. Wo die BK50 dasselbe Moor schon als Moorboden führt, fehlt die Fläche hier.","features":[{"type":"Feature","properties":{"name":"Stemmermoor","kind":"moor","slice":"1844"},"geometry":{"type":"Polygon","coordinates":[[[8.48238,52.50171],[8.48358,52.50245],[8.48478,52.50318],[8.48599,52.50392],[8.48719,52.50466],[8.48839,52.5054],[8.48959,52.50613],[8.49078,52.50687],[8.49198,52.50761],[8.49318,52.50834],[8.49438,52.50908],[8.49557,52.50982],[8.49677,52.51055],[8.49796,52.51129],[8.49915,52.51203],[8.50035,52.51276],[8.50154,52.5135],[8.50273,52.51423],[8.5038,52.51346],[8.50488,52.51268],[8.50596,52.51191],[8.50703,52.51113],[8.50811,52.51036],[8.50919,52.50958],[8.51026,52.50881],[8.51134,52.50803],[8.51292,52.50764],[8.51449,52.50724],[8.51607,52.50685],[8.51765,52.50645],[8.51922,52.50606],[8.5208,52.50566],[8.52238,52.50527],[8.52395,52.50487],[8.52553,52.50447],[8.5271,52.50408],[8.52875,52.5037],[8.5304,52.50332],[8.53204,52.50294],[8.53369,52.50256],[8.53534,52.50218],[8.53698,52.5018],[8.53863,52.50142],[8.54028,52.50104],[8.54192,52.50066],[8.54357,52.50028],[8.54522,52.4999],[8.54686,52.49952],[8.54851,52.49914],[8.55015,52.49876],[8.5518,52.49838],[8.5507,52.49758],[8.54961,52.49678],[8.54851,52.49598],[8.54742,52.49518],[8.54632,52.49438],[8.54489,52.49393],[8.54346,52.49349],[8.54204,52.49304],[8.54061,52.49259],[8.53918,52.49214],[8.53775,52.4917],[8.53632,52.49125],[8.5349,52.49065],[8.53348,52.49006],[8.53206,52.48946],[8.53064,52.48886],[8.52921,52.48826],[8.52779,52.48767],[8.52682,52.48686],[8.52586,52.48606],[8.52489,52.48525],[8.52392,52.48445],[8.52295,52.48365],[8.52134,52.48337],[8.51974,52.48309],[8.51813,52.48282],[8.51653,52.48254],[8.51492,52.48227],[8.51312,52.48238],[8.51131,52.4825],[8.50951,52.48262],[8.5077,52.48273],[8.5059,52.48285],[8.50409,52.48297],[8.50228,52.48308],[8.50095,52.48363],[8.49961,52.48418],[8.49828,52.48473],[8.49694,52.48528],[8.4959,52.48609],[8.49485,52.48691],[8.4938,52.48772],[8.49276,52.48853],[8.49171,52.48934],[8.49066,52.49015],[8.48955,52.49091],[8.48843,52.49167],[8.48732,52.49243],[8.4862,52.49319],[8.48509,52.49395],[8.48397,52.49471],[8.48286,52.49547],[8.48278,52.49651],[8.4827,52.49755],[8.48262,52.49859],[8.48254,52.49963],[8.48246,52.50067],[8.48238,52.50171]]]}},{"type":"Feature","properties":{"name":"Moor bei Moorort, Schlotmanns Torfkuhlen","kind":"moor","slice":"1844"},"geometry":{"type":"Polygon","coordinates":[[[8.60851,52.51825],[8.60996,52.51876],[8.61142,52.51928],[8.61287,52.51979],[8.61432,52.5203],[8.61577,52.52082],[8.61722,52.52133],[8.61868,52.52185],[8.62013,52.52236],[8.62158,52.52288],[8.62304,52.52339],[8.62449,52.52391],[8.62595,52.52442],[8.62741,52.52488],[8.62887,52.52534],[8.63034,52.5258],[8.6318,52.52626],[8.63327,52.52672],[8.63473,52.52718],[8.6362,52.52764],[8.63767,52.5281],[8.63913,52.52857],[8.6406,52.52903],[8.64207,52.52949],[8.64354,52.52995],[8.64452,52.52911],[8.64549,52.52828],[8.64647,52.52744],[8.64745,52.52661],[8.64704,52.52572],[8.64663,52.52483],[8.64623,52.52394],[8.64582,52.52305],[8.64542,52.52216],[8.64501,52.52127],[8.64339,52.52096],[8.64176,52.52064],[8.64014,52.52033],[8.63852,52.52001],[8.63689,52.5197],[8.63527,52.51939],[8.63365,52.51907],[8.63205,52.51885],[8.63045,52.51864],[8.62885,52.51842],[8.62725,52.5182],[8.62565,52.51798],[8.62405,52.51776],[8.62245,52.51755],[8.62085,52.51733],[8.61918,52.51719],[8.61751,52.51704],[8.61585,52.5169],[8.61418,52.51675],[8.61252,52.51661],[8.61085,52.51647],[8.60968,52.51736],[8.60851,52.51825]]]}},{"type":"Feature","properties":{"name":"Spreen Moor, Au Bruch","kind":"moor","slice":"1844"},"geometry":{"type":"Polygon","coordinates":[[[8.63628,52.51418],[8.63778,52.51445],[8.63929,52.51473],[8.6408,52.515],[8.64231,52.51528],[8.64382,52.51555],[8.64533,52.51582],[8.64684,52.5161],[8.64835,52.51637],[8.64989,52.5165],[8.65143,52.51662],[8.65297,52.51675],[8.65452,52.51687],[8.65606,52.517],[8.6576,52.51712],[8.65915,52.51725],[8.66076,52.51734],[8.66236,52.51744],[8.66397,52.51754],[8.66558,52.51764],[8.66719,52.51773],[8.6688,52.51783],[8.67041,52.51793],[8.67203,52.51803],[8.67364,52.51813],[8.67348,52.51724],[8.67332,52.51635],[8.67316,52.51546],[8.67175,52.51489],[8.67035,52.51431],[8.66894,52.51374],[8.66754,52.51317],[8.66613,52.5126],[8.66473,52.51203],[8.66333,52.51146],[8.66179,52.51127],[8.66025,52.51108],[8.65871,52.51089],[8.65717,52.51071],[8.65563,52.51052],[8.6541,52.51033],[8.65256,52.51014],[8.65095,52.51019],[8.64934,52.51025],[8.64772,52.5103],[8.64611,52.51035],[8.6445,52.51041],[8.64289,52.51046],[8.64129,52.51051],[8.63968,52.51057],[8.63807,52.51062],[8.63762,52.51151],[8.63717,52.5124],[8.63673,52.51329],[8.63628,52.51418]]]}},{"type":"Feature","properties":{"name":"Ströher Bruch","kind":"bruch","slice":"1844"},"geometry":{"type":"Polygon","coordinates":[[[8.58397,52.51121],[8.58552,52.5117],[8.58708,52.51219],[8.58864,52.51268],[8.59019,52.51317],[8.59175,52.51366],[8.5933,52.51414],[8.59486,52.51463],[8.59641,52.51512],[8.59796,52.51561],[8.5995,52.51573],[8.60103,52.51586],[8.60256,52.51598],[8.60409,52.5161],[8.60563,52.51623],[8.60716,52.51635],[8.60869,52.51647],[8.60914,52.51551],[8.6096,52.51455],[8.61006,52.51359],[8.61052,52.51263],[8.61098,52.51167],[8.61144,52.5107],[8.60983,52.51054],[8.60823,52.51038],[8.60663,52.51022],[8.60502,52.51006],[8.60342,52.5099],[8.60181,52.50973],[8.60021,52.50957],[8.5986,52.50941],[8.59698,52.50936],[8.59536,52.50931],[8.59375,52.50925],[8.59213,52.5092],[8.59051,52.50915],[8.58888,52.5091],[8.58726,52.50905],[8.58564,52.50899],[8.58508,52.50973],[8.58452,52.51047],[8.58397,52.51121]]]}},{"type":"Feature","properties":{"name":"Schwarze weiße Moor","kind":"moor","slice":"1844"},"geometry":{"type":"Polygon","coordinates":[[[8.68034,52.43633],[8.68188,52.43669],[8.68341,52.43706],[8.68494,52.43743],[8.68647,52.43779],[8.68801,52.43816],[8.68953,52.43852],[8.69128,52.43839],[8.69303,52.43825],[8.69478,52.43812],[8.69653,52.43799],[8.69827,52.43785],[8.70002,52.43772],[8.70177,52.43758],[8.70204,52.43649],[8.70231,52.43541],[8.70258,52.43432],[8.70285,52.43323],[8.70311,52.43214],[8.70338,52.43105],[8.70364,52.42996],[8.70322,52.42891],[8.70279,52.42787],[8.70236,52.42682],[8.70193,52.42578],[8.7015,52.42473],[8.70107,52.42368],[8.69953,52.42356],[8.698,52.42343],[8.69647,52.42331],[8.69493,52.42319],[8.6934,52.42307],[8.69186,52.42294],[8.69032,52.42282],[8.68858,52.42276],[8.68683,52.42271],[8.68508,52.42265],[8.68333,52.42259],[8.68158,52.42254],[8.67983,52.42248],[8.67808,52.42242],[8.67647,52.42288],[8.67487,52.42334],[8.67326,52.42379],[8.67165,52.42425],[8.67005,52.42471],[8.67015,52.42579],[8.67026,52.42687],[8.67036,52.42795],[8.67046,52.42902],[8.67056,52.4301],[8.67169,52.43081],[8.67281,52.43152],[8.67393,52.43224],[8.67505,52.43295],[8.67617,52.43366],[8.67721,52.43433],[8.67826,52.43499],[8.6793,52.43566],[8.68034,52.43633]]]}},{"type":"Feature","properties":{"name":"Flache Moor","kind":"moor","slice":"1844"},"geometry":{"type":"Polygon","coordinates":[[[8.6555,52.44183],[8.65726,52.44188],[8.65901,52.44194],[8.66077,52.44199],[8.66252,52.44205],[8.66427,52.4421],[8.66601,52.44215],[8.66776,52.44221],[8.66836,52.44131],[8.66895,52.44041],[8.66955,52.43952],[8.67014,52.43862],[8.66871,52.43845],[8.66728,52.43827],[8.66584,52.4381],[8.66441,52.43793],[8.66297,52.43776],[8.66133,52.43799],[8.65969,52.43823],[8.65805,52.43846],[8.65641,52.43869],[8.65611,52.43974],[8.65581,52.44079],[8.6555,52.44183]]]}},{"type":"Feature","properties":{"name":"Westermoor","kind":"moor","slice":"1844"},"geometry":{"type":"Polygon","coordinates":[[[8.65619,52.42658],[8.65801,52.42657],[8.65983,52.42656],[8.66165,52.42655],[8.66346,52.42654],[8.66527,52.42653],[8.66709,52.42652],[8.6689,52.42652],[8.67071,52.42651],[8.6711,52.42549],[8.6715,52.42448],[8.6719,52.42346],[8.67229,52.42245],[8.67068,52.42241],[8.66908,52.42237],[8.66747,52.42232],[8.66585,52.42228],[8.66424,52.42224],[8.66263,52.4222],[8.66101,52.42216],[8.6594,52.42212],[8.65778,52.42207],[8.65746,52.42298],[8.65715,52.42388],[8.65683,52.42478],[8.65651,52.42568],[8.65619,52.42658]]]}},{"type":"Feature","properties":{"name":"Schullmoor","kind":"moor","slice":"1844"},"geometry":{"type":"Polygon","coordinates":[[[8.55264,52.47272],[8.55434,52.47273],[8.55604,52.47274],[8.55774,52.47274],[8.55944,52.47275],[8.56114,52.47276],[8.56284,52.47276],[8.56454,52.47277],[8.56624,52.47277],[8.56794,52.47277],[8.56964,52.47278],[8.57065,52.4719],[8.57165,52.47101],[8.57265,52.47013],[8.57365,52.46925],[8.57221,52.46881],[8.57077,52.46836],[8.56932,52.46792],[8.56788,52.46747],[8.56643,52.46703],[8.56473,52.46709],[8.56303,52.46715],[8.56133,52.4672],[8.55963,52.46726],[8.55793,52.46731],[8.55623,52.46737],[8.55453,52.46743],[8.55347,52.4683],[8.55242,52.46918],[8.55136,52.47006],[8.55179,52.47095],[8.55221,52.47184],[8.55264,52.47272]]]}},{"type":"Feature","properties":{"name":"Das Bruch","kind":"bruch","slice":"1844"},"geometry":{"type":"Polygon","coordinates":[[[8.5579,52.48026],[8.55974,52.48026],[8.56159,52.48027],[8.56343,52.48027],[8.56527,52.48027],[8.5671,52.48028],[8.56894,52.48028],[8.57078,52.48028],[8.57262,52.48028],[8.57446,52.48028],[8.57629,52.48029],[8.5764,52.47918],[8.57651,52.47808],[8.57662,52.47698],[8.57673,52.47587],[8.57489,52.47587],[8.57305,52.47587],[8.5712,52.47587],[8.56936,52.47587],[8.56752,52.47586],[8.56567,52.47586],[8.56383,52.47586],[8.56198,52.47585],[8.56014,52.47585],[8.55829,52.47584],[8.5582,52.47694],[8.5581,52.47805],[8.558,52.47915],[8.5579,52.48026]]]}},{"type":"Feature","properties":{"name":"Saltlager Moor","kind":"moor","slice":"1844"},"geometry":{"type":"Polygon","coordinates":[[[8.5005,52.44114],[8.50219,52.44111],[8.50389,52.44109],[8.50558,52.44107],[8.50728,52.44104],[8.50897,52.44102],[8.51067,52.441],[8.51236,52.44098],[8.51406,52.44095],[8.51576,52.44093],[8.51745,52.44091],[8.51915,52.44089],[8.51935,52.44],[8.51955,52.4391],[8.51975,52.43821],[8.51995,52.43732],[8.51818,52.4373],[8.51642,52.43728],[8.51465,52.43726],[8.51289,52.43724],[8.51112,52.43722],[8.50936,52.4372],[8.5076,52.43719],[8.50584,52.43717],[8.50407,52.43715],[8.50231,52.43713],[8.50055,52.43711],[8.50054,52.43812],[8.50053,52.43913],[8.50051,52.44013],[8.5005,52.44114]]]}},{"type":"Feature","properties":{"name":"Babbelager Bruch","kind":"bruch","slice":"1844"},"geometry":{"type":"Polygon","coordinates":[[[8.49317,52.42988],[8.4949,52.42993],[8.49664,52.42997],[8.49838,52.43002],[8.50011,52.43006],[8.50185,52.43011],[8.50359,52.43016],[8.50533,52.43021],[8.50707,52.43025],[8.5088,52.4303],[8.51055,52.43035],[8.51229,52.4304],[8.51403,52.43044],[8.51577,52.43049],[8.51751,52.43054],[8.51926,52.43059],[8.51971,52.42961],[8.52016,52.42862],[8.52061,52.42764],[8.52106,52.42665],[8.52151,52.42567],[8.51973,52.42562],[8.51796,52.42558],[8.51618,52.42553],[8.51441,52.42548],[8.51264,52.42544],[8.51087,52.42539],[8.5091,52.42535],[8.50733,52.4253],[8.50556,52.42526],[8.50379,52.42521],[8.50203,52.42517],[8.50026,52.42512],[8.49849,52.42508],[8.49673,52.42503],[8.49497,52.42499],[8.4932,52.42495],[8.4932,52.42593],[8.49319,52.42692],[8.49318,52.42791],[8.49318,52.4289],[8.49317,52.42988]]]}},{"type":"Feature","properties":{"name":"Fledderbruch","kind":"bruch","slice":"1844"},"geometry":{"type":"Polygon","coordinates":[[[8.51918,52.4391],[8.52092,52.43909],[8.52267,52.43908],[8.52442,52.43907],[8.52616,52.43906],[8.52791,52.43905],[8.52966,52.43904],[8.53141,52.43902],[8.53316,52.43901],[8.53491,52.439],[8.53666,52.43899],[8.53841,52.43898],[8.54016,52.43897],[8.54192,52.43896],[8.54367,52.43894],[8.54542,52.43893],[8.54544,52.43795],[8.54546,52.43696],[8.54548,52.43598],[8.54549,52.43499],[8.5455,52.434],[8.54362,52.43399],[8.54174,52.43397],[8.53986,52.43395],[8.53798,52.43393],[8.5361,52.43391],[8.53422,52.43389],[8.53235,52.43387],[8.53047,52.43385],[8.5286,52.43383],[8.52672,52.43381],[8.52485,52.43379],[8.52298,52.43377],[8.52111,52.43375],[8.51924,52.43373],[8.51923,52.4348],[8.51922,52.43588],[8.51921,52.43695],[8.5192,52.43803],[8.51918,52.4391]]]}},{"type":"Feature","properties":{"name":"Schulmoor","kind":"moor","slice":"1844"},"geometry":{"type":"Polygon","coordinates":[[[8.55839,52.41831],[8.56006,52.4185],[8.56172,52.41869],[8.56339,52.41888],[8.56506,52.41907],[8.56673,52.41925],[8.56844,52.41892],[8.57015,52.41859],[8.57185,52.41825],[8.57356,52.41791],[8.57375,52.41689],[8.57394,52.41587],[8.57412,52.41485],[8.57431,52.41382],[8.57279,52.41336],[8.57127,52.41291],[8.56975,52.41245],[8.56822,52.41199],[8.5667,52.41217],[8.56519,52.41234],[8.56367,52.41252],[8.56215,52.4127],[8.56063,52.41287],[8.55962,52.41377],[8.55862,52.41468],[8.55761,52.41558],[8.55787,52.41649],[8.55813,52.4174],[8.55839,52.41831]]]}},{"type":"Feature","properties":{"name":"Ebbelage Moor","kind":"moor","slice":"1844"},"geometry":{"type":"Polygon","coordinates":[[[8.45918,52.38591],[8.46084,52.38596],[8.4625,52.38601],[8.46417,52.38606],[8.46583,52.38611],[8.46749,52.38616],[8.46915,52.3862],[8.47081,52.38625],[8.47247,52.3863],[8.47413,52.38635],[8.47579,52.3864],[8.47745,52.38645],[8.47747,52.38555],[8.47749,52.38464],[8.4775,52.38373],[8.47752,52.38283],[8.47577,52.38277],[8.47402,52.38272],[8.47227,52.38267],[8.47052,52.38261],[8.46876,52.38256],[8.46701,52.38251],[8.46526,52.38245],[8.46351,52.3824],[8.46175,52.38235],[8.46,52.38229],[8.45979,52.3832],[8.45959,52.3841],[8.45938,52.38501],[8.45918,52.38591]]]}},{"type":"Feature","properties":{"name":"Dammbruch","kind":"bruch","slice":"1844"},"geometry":{"type":"Polygon","coordinates":[[[8.69483,52.36065],[8.69653,52.36065],[8.69823,52.36066],[8.69992,52.36066],[8.70162,52.36067],[8.70332,52.36068],[8.70502,52.36068],[8.70671,52.36069],[8.70841,52.36069],[8.71011,52.3607],[8.7118,52.36071],[8.7135,52.36071],[8.71519,52.36072],[8.71519,52.35961],[8.71519,52.35851],[8.7152,52.3574],[8.7152,52.35629],[8.7152,52.35519],[8.7152,52.35408],[8.7152,52.35298],[8.71357,52.35314],[8.71193,52.3533],[8.7103,52.35346],[8.70866,52.35363],[8.70702,52.35379],[8.70539,52.35395],[8.70375,52.35412],[8.70211,52.35428],[8.70029,52.35427],[8.69847,52.35427],[8.69665,52.35426],[8.69483,52.35425],[8.69483,52.35532],[8.69483,52.35638],[8.69483,52.35745],[8.69483,52.35852],[8.69483,52.35958],[8.69483,52.36065]]]}},{"type":"Feature","properties":{"name":"Moor am Dammbruch","kind":"moor","slice":"1844"},"geometry":{"type":"Polygon","coordinates":[[[8.69482,52.35288],[8.69657,52.35316],[8.69832,52.35344],[8.70007,52.35372],[8.70182,52.35401],[8.70357,52.35429],[8.7044,52.35344],[8.70523,52.3526],[8.70606,52.35176],[8.70689,52.35091],[8.70772,52.35007],[8.70855,52.34923],[8.70939,52.34839],[8.70938,52.34725],[8.70938,52.34611],[8.70938,52.34497],[8.70938,52.34383],[8.70938,52.34269],[8.70938,52.34155],[8.70768,52.34131],[8.70598,52.34106],[8.70427,52.34082],[8.70257,52.34058],[8.70087,52.34034],[8.69917,52.3401],[8.69808,52.34101],[8.69699,52.34192],[8.6959,52.34282],[8.6948,52.34373],[8.69481,52.34488],[8.69481,52.34602],[8.69481,52.34716],[8.69482,52.34831],[8.69482,52.34945],[8.69482,52.35059],[8.69482,52.35174],[8.69482,52.35288]]]}},{"type":"Feature","properties":{"name":"Das alte Moor (Westteil)","kind":"moor","slice":"1844"},"geometry":{"type":"Polygon","coordinates":[[[8.67877,52.35374],[8.68047,52.3539],[8.68218,52.35406],[8.68388,52.35421],[8.68559,52.35437],[8.68729,52.35453],[8.68899,52.35469],[8.69069,52.35485],[8.6924,52.355],[8.6941,52.35516],[8.69419,52.35413],[8.69428,52.35311],[8.69437,52.35208],[8.69446,52.35105],[8.69455,52.35002],[8.69464,52.34899],[8.69472,52.34796],[8.69481,52.34693],[8.69299,52.34692],[8.69117,52.34692],[8.68934,52.34691],[8.68752,52.3469],[8.68569,52.34689],[8.68387,52.34688],[8.68204,52.34687],[8.68021,52.34687],[8.68001,52.34785],[8.6798,52.34883],[8.67959,52.34981],[8.67939,52.3508],[8.67918,52.35178],[8.67897,52.35276],[8.67877,52.35374]]]}}]}